{
    "links": {
        "self": "http://www.neowsapp.com/rest/v1/neo/3781646?api_key=iIulBulltgU6a56xZRHN4H3l9WmuAYTsLGpBGhQ2"
    },
    "id": "3781646",
    "neo_reference_id": "3781646",
    "name": "(2017 SQ10)",
    "designation": "2017 SQ10",
    "nasa_jpl_url": "http://ssd.jpl.nasa.gov/sbdb.cgi?sstr=3781646",
    "absolute_magnitude_h": 26.2,
    "estimated_diameter": {
        "kilometers": {
            "estimated_diameter_min": 0.0152951935,
            "estimated_diameter_max": 0.0342010925
        },
        "meters": {
            "estimated_diameter_min": 15.2951935344,
            "estimated_diameter_max": 34.201092472
        },
        "miles": {
            "estimated_diameter_min": 0.0095039897,
            "estimated_diameter_max": 0.021251567
        },
        "feet": {
            "estimated_diameter_min": 50.1810827555,
            "estimated_diameter_max": 112.2083122258
        }
    },
    "is_potentially_hazardous_asteroid": false,
    "close_approach_data": [
        {
            "close_approach_date": "2017-09-27",
            "close_approach_date_full": "2017-Sep-27 07:14",
            "epoch_date_close_approach": 1506496440000,
            "relative_velocity": {
                "kilometers_per_second": "7.4314492713",
                "kilometers_per_hour": "26753.2173767567",
                "miles_per_hour": "16623.4088750186"
            },
            "miss_distance": {
                "astronomical": "0.0414676503",
                "lunar": "16.1309159667",
                "kilometers": "6203472.158784861",
                "miles": "3854658.8565626418"
            },
            "orbiting_body": "Earth"
        }
    ],
    "orbital_data": {
        "orbit_id": "3",
        "orbit_determination_date": "2017-10-01 06:50:13",
        "first_observation_date": "2017-09-21",
        "last_observation_date": "2017-09-30",
        "data_arc_in_days": 9,
        "observations_used": 31,
        "orbit_uncertainty": "8",
        "minimum_orbit_intersection": ".0314614",
        "jupiter_tisserand_invariant": "3.262",
        "epoch_osculation": "2458018.5",
        "eccentricity": ".5755671018414121",
        "semi_major_axis": "2.42584600474742",
        "inclination": ".8169441820986071",
        "ascending_node_longitude": "218.1862218983979",
        "orbital_period": "1380.045066179733",
        "perihelion_distance": "1.029608850281379",
        "perihelion_argument": "159.7945279339431",
        "aphelion_distance": "3.822083159213461",
        "perihelion_time": "2458034.744844307421",
        "mean_anomaly": "355.7623529158649",
        "mean_motion": ".2608610463689849",
        "equinox": "J2000",
        "orbit_class": {
            "orbit_class_type": "AMO",
            "orbit_class_description": "Near-Earth asteroid orbits similar to that of 1221 Amor",
            "orbit_class_range": "1.017 AU < q (perihelion) < 1.3 AU"
        }
    },
    "is_sentry_object": false
}